OBJECT_NAME,OBJECT_ID,EPOCH,MEAN_MOTION,ECCENTRICITY,INCLINATION,RA_OF_ASC_NODE,ARG_OF_PERICENTER,MEAN_ANOMALY,EPHEMERIS_TYPE,CLASSIFICATION_TYPE,NORAD_CAT_ID,ELEMENT_SET_NO,REV_AT_EPOCH,BSTAR,MEAN_MOTION_DOT,MEAN_MOTION_DDOT
STARLINK-37411,2026-123AD,2026-06-11T16:00:01.998720,15.98263417,.0001109,53.1564,269.1110,49.7224,93.8749,0,U,69380,999,240,-.37184E-2,-.176007E-1,.91559E-3
STARLINK-37427,2026-123AE,2026-06-11T16:00:01.998720,15.98890903,.0001112,53.1562,269.0905,51.7279,101.8284,0,U,69381,999,231,-.34681E-2,-.1701238E-1,.86558E-3
QIANFAN-165,2026-124A,2026-06-10T21:57:37.633824,14.21451188,.00020297,88.9980,2.7539,195.3893,164.7237,0,U,69382,999,92,-.91181937E+0,-.1854162E-1,0
QIANFAN-166,2026-124B,2026-06-11T11:27:19.991808,14.25623990,.0001742,88.9986,2.6893,196.1379,163.9759,0,U,69383,999,100,.9578E-4,.241E-5,0
QIANFAN-167,2026-124C,2026-06-10T21:55:30.614592,14.19974316,.00036045,88.9989,2.7536,293.9957,66.0856,0,U,69384,999,92,-.78870914E+0,-.1561002E-1,0
QIANFAN-168,2026-124D,2026-06-10T20:15:26.421120,14.22619835,.00057451,88.9981,2.7619,147.2677,212.8872,0,U,69385,999,91,-.92275734E+0,-.1914124E-1,0
QIANFAN-169,2026-124E,2026-06-10T21:56:06.647712,14.22235421,.00072145,88.9980,2.7539,173.4169,186.7118,0,U,69386,999,92,-.89812046E+0,-.185401E-1,0
QIANFAN-170,2026-124F,2026-06-10T20:15:22.457088,14.22716838,.00073437,88.9981,2.7622,135.9027,224.2751,0,U,69387,999,91,-.92773747E+0,-.1927219E-1,0
QIANFAN-171,2026-124G,2026-06-10T20:14:44.045376,14.21967593,.00090503,88.9982,2.7620,172.8482,187.2840,0,U,69388,999,91,-.88070283E+0,-.1812081E-1,0
QIANFAN-172,2026-124H,2026-06-10T20:15:36.967104,14.23032199,.00065718,88.9979,2.7620,144.9469,215.2157,0,U,69389,999,91,-.94647039E+0,-.1974196E-1,0
QIANFAN-173,2026-124J,2026-06-10T20:15:25.062048,14.20891229,.00215566,88.9989,2.7662,27.5748,332.6581,0,U,69390,999,91,-.67101907E+0,-.1427296E-1,0
QIANFAN-174,2026-124K,2026-06-10T23:36:27.220032,14.22104857,.00084633,88.9981,2.7457,180.8747,179.2431,0,U,69391,999,93,-.87170799E+0,-.1799043E-1,0
QIANFAN-175,2026-124L,2026-06-10T23:36:20.452320,14.22043621,.00088953,88.9981,2.7458,183.7161,176.3966,0,U,69392,999,93,-.86425771E+0,-.1762832E-1,0
QIANFAN-176,2026-124M,2026-06-10T23:36:11.974752,14.21408117,.0011326,88.9980,2.7458,168.0633,192.0828,0,U,69393,999,93,-.80747588E+0,-.163714E-1,0
QIANFAN-177,2026-124N,2026-06-10T23:36:11.962656,14.21289737,.00013657,88.9981,2.7456,120.8534,239.2791,0,U,69394,999,93,-.79671308E+0,-.1612489E-1,0
QIANFAN-178,2026-124P,2026-06-10T23:36:16.016544,14.21589410,.00092439,88.9981,2.7458,179.2577,180.8630,0,U,69395,999,93,-.83847437E+0,-.1700532E-1,0
QIANFAN-179,2026-124Q,2026-06-10T23:36:07.831872,14.21489584,.00028108,88.9981,2.7455,88.9910,271.1603,0,U,69396,999,93,-.81552151E+0,-.1653736E-1,0
QIANFAN-180,2026-124R,2026-06-10T21:55:23.903040,14.22402304,.00086387,88.9981,2.7539,157.4631,202.6942,0,U,69397,999,92,-.88750212E+0,-.1839149E-1,0
QIANFAN-181,2026-124S,2026-06-10T21:57:39.253824,14.21669897,.00026846,88.9982,2.7542,126.0200,234.1240,0,U,69398,999,92,-.93060969E+0,-.1897081E-1,0
QIANFAN-182,2026-124T,2026-06-10T21:56:00.974688,14.22145649,.0000853,88.9982,2.7537,87.5060,272.6228,0,U,69399,999,92,-.89202274E+0,-.1838893E-1,0
DTC TEST OBJECT A,2026-128A,2026-06-11T16:58:07.055904,15.55796670,.0008119,54.9939,330.3427,264.4915,95.5195,0,U,69472,999,37,.32162E-3,.22177E-3,0
DTC TEST OBJECT B,2026-128B,2026-06-11T16:57:46.267200,15.55972338,.0008173,55.0027,330.3416,268.8601,91.1498,0,U,69473,999,36,.40462E-3,.28232E-3,0
TJS-25,2026-129A,2026-06-11T11:34:53.014656,1.72502163,.7751889,16.5302,30.5351,199.9639,91.9387,0,U,69474,999,7,.19774E-2,.7407E-4,0
