STARLINK-37411          
1 69380U 26123AD  26162.66668980 -.01760070  91559-3 -37184-2 0  9996
2 69380  53.1564 269.1110 0001109  49.7224  93.8749 15.98263417  2403
STARLINK-37427          
1 69381U 26123AE  26162.66668980 -.01701238  86558-3 -34681-2 0  9990
2 69381  53.1562 269.0905 0001112  51.7279 101.8284 15.98890903  2310
QIANFAN-165             
1 69382U 26124A   26161.91501891 -.01854162  00000+0 -91182+0 0  9991
2 69382  88.9980   2.7539 0002029 195.3893 164.7237 14.21451188   925
QIANFAN-166             
1 69383U 26124B   26162.47731472  .00000241  00000+0  95780-4 0  9995
2 69383  88.9986   2.6893 0001742 196.1379 163.9759 14.25623990  1009
QIANFAN-167             
1 69384U 26124C   26161.91354878 -.01561002  00000+0 -78871+0 0  9992
2 69384  88.9989   2.7536 0003604 293.9957  66.0856 14.19974316   920
QIANFAN-168             
1 69385U 26124D   26161.84405580 -.01914124  00000+0 -92276+0 0  9994
2 69385  88.9981   2.7619 0005745 147.2677 212.8872 14.22619835   917
QIANFAN-169             
1 69386U 26124E   26161.91396583 -.01854010  00000+0 -89812+0 0  9994
2 69386  88.9980   2.7539 0007214 173.4169 186.7118 14.22235421   926
QIANFAN-170             
1 69387U 26124F   26161.84400992 -.01927219  00000+0 -92774+0 0  9990
2 69387  88.9981   2.7622 0007343 135.9027 224.2751 14.22716838   916
QIANFAN-171             
1 69388U 26124G   26161.84356534 -.01812081  00000+0 -88070+0 0  9997
2 69388  88.9982   2.7620 0009050 172.8482 187.2840 14.21967593   910
QIANFAN-172             
1 69389U 26124H   26161.84417786 -.01974196  00000+0 -94647+0 0  9998
2 69389  88.9979   2.7620 0006571 144.9469 215.2157 14.23032199   917
QIANFAN-173             
1 69390U 26124J   26161.84404007 -.01427296  00000+0 -67102+0 0  9992
2 69390  88.9989   2.7662 0021556  27.5748 332.6581 14.20891229   911
QIANFAN-174             
1 69391U 26124K   26161.98364838 -.01799043  00000+0 -87171+0 0  9995
2 69391  88.9981   2.7457 0008463 180.8747 179.2431 14.22104857   937
QIANFAN-175             
1 69392U 26124L   26161.98357005 -.01762832  00000+0 -86426+0 0  9992
2 69392  88.9981   2.7458 0008895 183.7161 176.3966 14.22043621   932
QIANFAN-176             
1 69393U 26124M   26161.98347193 -.01637140  00000+0 -80748+0 0  9994
2 69393  88.9980   2.7458 0011326 168.0633 192.0828 14.21408117   931
QIANFAN-177             
1 69394U 26124N   26161.98347179 -.01612489  00000+0 -79671+0 0  9991
2 69394  88.9981   2.7456 0001365 120.8534 239.2791 14.21289737   937
QIANFAN-178             
1 69395U 26124P   26161.98351871 -.01700532  00000+0 -83847+0 0  9993
2 69395  88.9981   2.7458 0009243 179.2577 180.8630 14.21589410   932
QIANFAN-179             
1 69396U 26124Q   26161.98342398 -.01653736  00000+0 -81552+0 0  9992
2 69396  88.9981   2.7455 0002810  88.9910 271.1603 14.21489584   935
QIANFAN-180             
1 69397U 26124R   26161.91347110 -.01839149  00000+0 -88750+0 0  9994
2 69397  88.9981   2.7539 0008638 157.4631 202.6942 14.22402304   925
QIANFAN-181             
1 69398U 26124S   26161.91503766 -.01897081  00000+0 -93061+0 0  9996
2 69398  88.9982   2.7542 0002684 126.0200 234.1240 14.21669897   922
QIANFAN-182             
1 69399U 26124T   26161.91390017 -.01838893  00000+0 -89202+0 0  9998
2 69399  88.9982   2.7537 0000853  87.5060 272.6228 14.22145649   926
DTC TEST OBJECT A       
1 69472U 26128A   26162.70702611  .00022177  00000+0  32162-3 0  9993
2 69472  54.9939 330.3427 0008119 264.4915  95.5195 15.55796670   376
DTC TEST OBJECT B       
1 69473U 26128B   26162.70678550  .00028232  00000+0  40462-3 0  9998
2 69473  55.0027 330.3416 0008173 268.8601  91.1498 15.55972338   369
TJS-25                  
1 69474U 26129A   26162.48255804  .00007407  00000+0  19774-2 0  9990
2 69474  16.5302  30.5351 7751889 199.9639  91.9387  1.72502163    78
